ATLAS CENTAUR 2         
1 00694U 63047A   26106.93268446  .00002104  00000+0  24789-3 0  9995
2 00694  30.3541 341.8948 0546707  57.3763 307.8409 14.12248978137035
THOR AGENA D R/B        
1 00733U 64002A   26106.75780254  .00000094  00000+0  50564-4 0  9994
2 00733  99.1198 122.1678 0033526 146.2583 214.0743 14.34039510243759
SL-3 R/B                
1 00877U 64053B   26106.74092733  .00000079  00000+0  39710-4 0  9999
2 00877  65.0769 219.6729 0080918 280.2900  78.9084 14.61394766272352
SL-8 R/B                
1 02802U 67045B   26106.63580494  .00000200  00000+0  63183-4 0  9994
2 02802  74.0095 277.2176 0065173 275.3377  84.0347 14.45650602 94504
SL-8 R/B                
1 03230U 68040B   26106.64018131  .00001967  00000+0  14649-3 0  9994
2 03230  74.0298 236.1270 0023619  44.3252 315.9822 15.03517076 95719
OAO 2                   
1 03597U 68110A   26106.51900138  .00000111  00000+0  34959-4 0  9998
2 03597  34.9939  54.0045 0005262 147.0442 213.0578 14.47327926 24588
ISIS 1                  
1 03669U 69009A   26106.59691675  .00000089  00000+0  55327-4 0  9993
2 03669  88.4466 151.1658 1707396  12.6822 351.2077 11.30422974352810
SERT 2                  
1 04327U 70009A   26106.69556627  .00000013  00000+0  74717-4 0  9996
2 04327  99.2807  47.7200 0005786  70.8249 353.3756 13.58734501785053
SL-3 R/B                
1 05118U 71028B   26106.87959029  .00028617  00000+0  29468-3 0  9992
2 05118  81.2379   4.7456 0016428 139.6754 220.5723 15.64507340994636
ASTEX 1                 
1 05560U 71089A   26106.61923802  .00000267  00000+0  68081-4 0  9998
2 05560  92.7063 164.0127 0013941 323.4132  36.6121 14.50806380867805
SL-8 R/B                
1 05730U 71119B   26106.70604003  .00005321  00000+0  27856-3 0  9990
2 05730  73.8833 104.6184 0545588  63.1987 302.3892 14.38507683660950
OAO 3 (COPERNICUS)      
1 06153U 72065A   26106.64193005  .00000161  00000+0  37333-4 0  9998
2 06153  35.0055  81.0768 0006078 113.9543  52.5808 14.60026357851749
ATLAS CENTAUR R/B       
1 06155U 72065B   26106.05627032  .00000664  00000+0  93469-4 0  9997
2 06155  35.0013  86.7486 0033862 323.7629  36.0779 14.77789793846792
SL-8 R/B                
1 08459U 75112B   26106.82992977  .00000064  00000+0  29503-4 0  9992
2 08459  74.0600 308.7528 0015092  27.3504 332.8441 14.38223427637351
SL-3 R/B                
1 10114U 77057B   26106.90561521  .00007795  00000+0  15861-3 0  9998
2 10114  97.5808 280.5516 0008105 139.2560 220.9296 15.46549072674238
SEASAT 1                
1 10967U 78064A   26106.19455130  .00000143  00000+0  78349-4 0  9993
2 10967 108.0072 204.1897 0002789 266.2920  93.7907 14.46192682511934
SL-14 R/B               
1 11267U 79011B   26106.60844833  .00000352  00000+0  32202-4 0  9998
2 11267  82.5240  60.5810 0014516 293.4105  66.5588 14.91958529534431
