[{"OBJECT_NAME":"ATLAS CENTAUR 2","OBJECT_ID":"1963-047A","EPOCH":"2026-04-16T22:23:03.937344","MEAN_MOTION":14.12248978,"ECCENTRICITY":0.05467072,"INCLINATION":30.3541,"RA_OF_ASC_NODE":341.8948,"ARG_OF_PERICENTER":57.3763,"MEAN_ANOMALY":307.8409,"EPHEMERIS_TYPE":0,"CLASSIFICATION_TYPE":"U","NORAD_CAT_ID":694,"ELEMENT_SET_NO":999,"REV_AT_EPOCH":13703,"BSTAR":0.00024788759,"MEAN_MOTION_DOT":2.104e-5,"MEAN_MOTION_DDOT":0},{"OBJECT_NAME":"THOR AGENA D R/B","OBJECT_ID":"1964-002A","EPOCH":"2026-04-16T18:11:14.139456","MEAN_MOTION":14.3403951,"ECCENTRICITY":0.00335267,"INCLINATION":99.1198,"RA_OF_ASC_NODE":122.1678,"ARG_OF_PERICENTER":146.2583,"MEAN_ANOMALY":214.0743,"EPHEMERIS_TYPE":0,"CLASSIFICATION_TYPE":"U","NORAD_CAT_ID":733,"ELEMENT_SET_NO":999,"REV_AT_EPOCH":24375,"BSTAR":5.0563717e-5,"MEAN_MOTION_DOT":9.4e-7,"MEAN_MOTION_DDOT":0},{"OBJECT_NAME":"SL-3 R/B","OBJECT_ID":"1964-053B","EPOCH":"2026-04-16T17:46:56.121312","MEAN_MOTION":14.61394766,"ECCENTRICITY":0.0080918,"INCLINATION":65.0769,"RA_OF_ASC_NODE":219.6729,"ARG_OF_PERICENTER":280.29,"MEAN_ANOMALY":78.9084,"EPHEMERIS_TYPE":0,"CLASSIFICATION_TYPE":"U","NORAD_CAT_ID":877,"ELEMENT_SET_NO":999,"REV_AT_EPOCH":27235,"BSTAR":3.9710085e-5,"MEAN_MOTION_DOT":7.9e-7,"MEAN_MOTION_DDOT":0},{"OBJECT_NAME":"SL-8 R/B","OBJECT_ID":"1967-045B","EPOCH":"2026-04-16T15:15:33.546816","MEAN_MOTION":14.45650602,"ECCENTRICITY":0.00651737,"INCLINATION":74.0095,"RA_OF_ASC_NODE":277.2176,"ARG_OF_PERICENTER":275.3377,"MEAN_ANOMALY":84.0347,"EPHEMERIS_TYPE":0,"CLASSIFICATION_TYPE":"U","NORAD_CAT_ID":2802,"ELEMENT_SET_NO":999,"REV_AT_EPOCH":9450,"BSTAR":6.3183488e-5,"MEAN_MOTION_DOT":2.0e-6,"MEAN_MOTION_DDOT":0},{"OBJECT_NAME":"SL-8 R/B","OBJECT_ID":"1968-040B","EPOCH":"2026-04-16T15:21:51.665184","MEAN_MOTION":15.03517076,"ECCENTRICITY":0.00236199,"INCLINATION":74.0298,"RA_OF_ASC_NODE":236.127,"ARG_OF_PERICENTER":44.3252,"MEAN_ANOMALY":315.9822,"EPHEMERIS_TYPE":0,"CLASSIFICATION_TYPE":"U","NORAD_CAT_ID":3230,"ELEMENT_SET_NO":999,"REV_AT_EPOCH":9571,"BSTAR":0.00014649266,"MEAN_MOTION_DOT":1.967e-5,"MEAN_MOTION_DDOT":0},{"OBJECT_NAME":"OAO 2","OBJECT_ID":"1968-110A","EPOCH":"2026-04-16T12:27:21.719232","MEAN_MOTION":14.47327926,"ECCENTRICITY":0.00052629,"INCLINATION":34.9939,"RA_OF_ASC_NODE":54.0045,"ARG_OF_PERICENTER":147.0442,"MEAN_ANOMALY":213.0578,"EPHEMERIS_TYPE":0,"CLASSIFICATION_TYPE":"U","NORAD_CAT_ID":3597,"ELEMENT_SET_NO":999,"REV_AT_EPOCH":2458,"BSTAR":3.4959147e-5,"MEAN_MOTION_DOT":1.11e-6,"MEAN_MOTION_DDOT":0},{"OBJECT_NAME":"ISIS 1","OBJECT_ID":"1969-009A","EPOCH":"2026-04-16T14:19:33.607200","MEAN_MOTION":11.30422974,"ECCENTRICITY":0.17073965,"INCLINATION":88.4466,"RA_OF_ASC_NODE":151.1658,"ARG_OF_PERICENTER":12.6822,"MEAN_ANOMALY":351.2077,"EPHEMERIS_TYPE":0,"CLASSIFICATION_TYPE":"U","NORAD_CAT_ID":3669,"ELEMENT_SET_NO":999,"REV_AT_EPOCH":35281,"BSTAR":5.5327073e-5,"MEAN_MOTION_DOT":8.9e-7,"MEAN_MOTION_DDOT":0},{"OBJECT_NAME":"SERT 2","OBJECT_ID":"1970-009A","EPOCH":"2026-04-16T16:41:36.925728","MEAN_MOTION":13.58734501,"ECCENTRICITY":0.0005786,"INCLINATION":99.2807,"RA_OF_ASC_NODE":47.72,"ARG_OF_PERICENTER":70.8249,"MEAN_ANOMALY":353.3756,"EPHEMERIS_TYPE":0,"CLASSIFICATION_TYPE":"U","NORAD_CAT_ID":4327,"ELEMENT_SET_NO":999,"REV_AT_EPOCH":78505,"BSTAR":7.4716818e-5,"MEAN_MOTION_DOT":1.3e-7,"MEAN_MOTION_DDOT":0},{"OBJECT_NAME":"SL-3 R/B","OBJECT_ID":"1971-028B","EPOCH":"2026-04-16T21:06:36.601056","MEAN_MOTION":15.6450734,"ECCENTRICITY":0.00164283,"INCLINATION":81.2379,"RA_OF_ASC_NODE":4.7456,"ARG_OF_PERICENTER":139.6754,"MEAN_ANOMALY":220.5723,"EPHEMERIS_TYPE":0,"CLASSIFICATION_TYPE":"U","NORAD_CAT_ID":5118,"ELEMENT_SET_NO":999,"REV_AT_EPOCH":99463,"BSTAR":0.00029468436,"MEAN_MOTION_DOT":0.00028617,"MEAN_MOTION_DDOT":0},{"OBJECT_NAME":"ASTEX 1","OBJECT_ID":"1971-089A","EPOCH":"2026-04-16T14:51:42.164928","MEAN_MOTION":14.5080638,"ECCENTRICITY":0.00139419,"INCLINATION":92.7063,"RA_OF_ASC_NODE":164.0127,"ARG_OF_PERICENTER":323.4132,"MEAN_ANOMALY":36.6121,"EPHEMERIS_TYPE":0,"CLASSIFICATION_TYPE":"U","NORAD_CAT_ID":5560,"ELEMENT_SET_NO":999,"REV_AT_EPOCH":86780,"BSTAR":6.8081034e-5,"MEAN_MOTION_DOT":2.67e-6,"MEAN_MOTION_DDOT":0},{"OBJECT_NAME":"SL-8 R/B","OBJECT_ID":"1971-119B","EPOCH":"2026-04-16T16:56:41.858592","MEAN_MOTION":14.38507683,"ECCENTRICITY":0.05455882,"INCLINATION":73.8833,"RA_OF_ASC_NODE":104.6184,"ARG_OF_PERICENTER":63.1987,"MEAN_ANOMALY":302.3892,"EPHEMERIS_TYPE":0,"CLASSIFICATION_TYPE":"U","NORAD_CAT_ID":5730,"ELEMENT_SET_NO":999,"REV_AT_EPOCH":66095,"BSTAR":0.00027856089,"MEAN_MOTION_DOT":5.321e-5,"MEAN_MOTION_DDOT":0},{"OBJECT_NAME":"OAO 3 (COPERNICUS)","OBJECT_ID":"1972-065A","EPOCH":"2026-04-16T15:24:22.756320","MEAN_MOTION":14.60026357,"ECCENTRICITY":0.00060785,"INCLINATION":35.0055,"RA_OF_ASC_NODE":81.0768,"ARG_OF_PERICENTER":113.9543,"MEAN_ANOMALY":52.5808,"EPHEMERIS_TYPE":0,"CLASSIFICATION_TYPE":"U","NORAD_CAT_ID":6153,"ELEMENT_SET_NO":999,"REV_AT_EPOCH":85174,"BSTAR":3.7332538e-5,"MEAN_MOTION_DOT":1.61e-6,"MEAN_MOTION_DDOT":0},{"OBJECT_NAME":"ATLAS CENTAUR R/B","OBJECT_ID":"1972-065B","EPOCH":"2026-04-16T01:21:01.755648","MEAN_MOTION":14.77789793,"ECCENTRICITY":0.00338628,"INCLINATION":35.0013,"RA_OF_ASC_NODE":86.7486,"ARG_OF_PERICENTER":323.7629,"MEAN_ANOMALY":36.0779,"EPHEMERIS_TYPE":0,"CLASSIFICATION_TYPE":"U","NORAD_CAT_ID":6155,"ELEMENT_SET_NO":999,"REV_AT_EPOCH":84679,"BSTAR":9.3468932e-5,"MEAN_MOTION_DOT":6.64e-6,"MEAN_MOTION_DDOT":0},{"OBJECT_NAME":"SL-8 R/B","OBJECT_ID":"1975-112B","EPOCH":"2026-04-16T19:55:05.932128","MEAN_MOTION":14.38223427,"ECCENTRICITY":0.00150928,"INCLINATION":74.06,"RA_OF_ASC_NODE":308.7528,"ARG_OF_PERICENTER":27.3504,"MEAN_ANOMALY":332.8441,"EPHEMERIS_TYPE":0,"CLASSIFICATION_TYPE":"U","NORAD_CAT_ID":8459,"ELEMENT_SET_NO":999,"REV_AT_EPOCH":63735,"BSTAR":2.9503416e-5,"MEAN_MOTION_DOT":6.4e-7,"MEAN_MOTION_DDOT":0},{"OBJECT_NAME":"SL-3 R/B","OBJECT_ID":"1977-057B","EPOCH":"2026-04-16T21:44:05.154144","MEAN_MOTION":15.46549072,"ECCENTRICITY":0.00081056,"INCLINATION":97.5808,"RA_OF_ASC_NODE":280.5516,"ARG_OF_PERICENTER":139.256,"MEAN_ANOMALY":220.9296,"EPHEMERIS_TYPE":0,"CLASSIFICATION_TYPE":"U","NORAD_CAT_ID":10114,"ELEMENT_SET_NO":999,"REV_AT_EPOCH":67423,"BSTAR":0.00015860888,"MEAN_MOTION_DOT":7.795e-5,"MEAN_MOTION_DDOT":0},{"OBJECT_NAME":"SEASAT 1","OBJECT_ID":"1978-064A","EPOCH":"2026-04-16T04:40:09.232320","MEAN_MOTION":14.46192682,"ECCENTRICITY":0.00027896,"INCLINATION":108.0072,"RA_OF_ASC_NODE":204.1897,"ARG_OF_PERICENTER":266.292,"MEAN_ANOMALY":93.7907,"EPHEMERIS_TYPE":0,"CLASSIFICATION_TYPE":"U","NORAD_CAT_ID":10967,"ELEMENT_SET_NO":999,"REV_AT_EPOCH":51193,"BSTAR":7.834924e-5,"MEAN_MOTION_DOT":1.43e-6,"MEAN_MOTION_DDOT":0},{"OBJECT_NAME":"SL-14 R/B","OBJECT_ID":"1979-011B","EPOCH":"2026-04-16T14:36:09.935712","MEAN_MOTION":14.91958529,"ECCENTRICITY":0.00145168,"INCLINATION":82.524,"RA_OF_ASC_NODE":60.581,"ARG_OF_PERICENTER":293.4105,"MEAN_ANOMALY":66.5588,"EPHEMERIS_TYPE":0,"CLASSIFICATION_TYPE":"U","NORAD_CAT_ID":11267,"ELEMENT_SET_NO":999,"REV_AT_EPOCH":53443,"BSTAR":3.2201789e-5,"MEAN_MOTION_DOT":3.52e-6,"MEAN_MOTION_DDOT":0}]
